     2              NAVIGATION DATA                         RINEX VERSION / TYPE
CCRINEXN V1.6.0 UX  CDDIS               15-APR-22 19:31     PGM / RUN BY / DATE 
IGS BROADCAST EPHEMERIS FILE                                COMMENT             
    0.1583D-07  0.1490D-07 -0.1192D-06 -0.1192D-06          ION ALPHA           
    0.1065D+06  0.6554D+05 -0.1966D+06 -0.1966D+06          ION BETA            
   -0.558793544769D-08-0.159872115546D-13   503808     2205 DELTA-UTC: A0,A1,T,W
    18                                                      LEAP SECONDS        
                                                            END OF HEADER       
23 22  4 14 20  0  0.0-0.149351544678D-04-0.284217094304D-11 0.000000000000D+00
    0.400000000000D+02 0.121250000000D+02 0.482627246219D-08 0.233800319750D+00
    0.424683094025D-06 0.205305695999D-02 0.311061739922D-05 0.515369930267D+04
    0.417600000000D+06 0.484287738800D-07-0.190772010457D+01-0.353902578354D-07
    0.967815539551D+00 0.323437500000D+03 0.300197231679D+01-0.847463871701D-08
   -0.464305054455D-11 0.100000000000D+01 0.220500000000D+04 0.000000000000D+00
    0.200000000000D+01 0.000000000000D+00-0.838190317154D-08 0.552000000000D+03
    0.410418000000D+06 0.400000000000D+01 0.000000000000D+00 0.000000000000D+00
24 22  4 14 20  0  0.0 0.256529077888D-03-0.511590769747D-11 0.000000000000D+00
    0.690000000000D+02 0.533750000000D+02 0.486841707483D-08 0.128550796449D+01
    0.276789069176D-05 0.124171470525D-01 0.117402523756D-04 0.515369952965D+04
    0.417600000000D+06-0.216066837311D-06 0.136401779510D+00 0.931322574615D-07
    0.934878970353D+00 0.138906250000D+03 0.812773417332D+00-0.835856245339D-08
    0.243938732456D-09 0.100000000000D+01 0.220500000000D+04 0.000000000000D+00
    0.200000000000D+01 0.000000000000D+00 0.232830643654D-08 0.690000000000D+02
    0.410449000000D+06 0.400000000000D+01 0.000000000000D+00 0.000000000000D+00
25 22  4 14 20  0  0.0 0.311966519803D-03 0.500222085975D-11 0.000000000000D+00
    0.340000000000D+02 0.224062500000D+02 0.527307678767D-08-0.602192792273D+00
    0.141188502312D-05 0.105573347537D-01 0.318698585033D-05 0.515367868042D+04
    0.417600000000D+06-0.111758708954D-07 0.125560422489D+01 0.139698386192D-06
    0.956928943543D+00 0.320687500000D+03 0.998337591717D+00-0.875429322288D-08
    0.183936233111D-09 0.100000000000D+01 0.220500000000D+04 0.000000000000D+00
    0.200000000000D+01 0.000000000000D+00 0.558793544769D-08 0.340000000000D+02
    0.410418000000D+06 0.400000000000D+01 0.000000000000D+00 0.000000000000D+00
26 22  4 14 20  0  0.0 0.198611058295D-03 0.284217094304D-11 0.000000000000D+00
    0.810000000000D+02 0.326562500000D+02 0.559666169485D-08-0.126179455543D+01
    0.162608921528D-05 0.692866591271D-02 0.258721411228D-05 0.515372549057D+04
    0.417600000000D+06 0.856816768646D-07 0.120748136497D+01-0.987201929092D-07
    0.937803494274D+00 0.311750000000D+03 0.388391155148D+00-0.882215319238D-08
    0.300726812193D-09 0.100000000000D+01 0.220500000000D+04 0.000000000000D+00
    0.200000000000D+01 0.000000000000D+00 0.698491930962D-08 0.810000000000D+02
    0.410418000000D+06 0.400000000000D+01 0.000000000000D+00 0.000000000000D+00
27 22  4 14 20  0  0.0 0.183008611202D-03 0.909494701773D-11 0.000000000000D+00
    0.890000000000D+02-0.825312500000D+02 0.430946522081D-08-0.308459572822D+01
   -0.437535345554D-05 0.105132014723D-01 0.997819006443D-05 0.515365588188D+04
    0.417600000000D+06-0.521540641785D-07 0.230848509335D+01-0.208616256714D-06
    0.972681487425D+00 0.192375000000D+03 0.667447713191D+00-0.783961226560D-08
   -0.547879964257D-09 0.100000000000D+01 0.220500000000D+04 0.000000000000D+00
    0.280000000000D+01 0.000000000000D+00 0.139698386192D-08 0.890000000000D+02
    0.410418000000D+06 0.400000000000D+01 0.000000000000D+00 0.000000000000D+00
28 22  4 14 20  0  0.0 0.371374189854D-03-0.352429196937D-11 0.000000000000D+00
    0.700000000000D+02 0.141250000000D+02 0.479555689705D-08-0.263501495520D+01
    0.860542058945D-06 0.166512608994D-01 0.233389437199D-05 0.515368137360D+04
    0.417600000000D+06 0.119209289551D-06 0.135513148356D+01 0.230967998505D-06
    0.968479898927D+00 0.332812500000D+03-0.128187109309D+01-0.814819654795D-08
    0.203937066226D-09 0.100000000000D+01 0.220500000000D+04 0.000000000000D+00
    0.282842707634D+01 0.630000000000D+02-0.111758708954D-07 0.700000000000D+02
    0.410482000000D+06 0.400000000000D+01 0.000000000000D+00 0.000000000000D+00
29 22  4 14 20  0  0.0-0.503052026033D-03-0.420641299570D-11 0.000000000000D+00
    0.125000000000D+03-0.624687500000D+02 0.418517432931D-08-0.294470020190D+01
   -0.319443643093D-05 0.204739440232D-02 0.997073948383D-05 0.515372312546D+04
    0.417600000000D+06-0.167638063431D-07 0.238450396654D+01 0.894069671631D-07
    0.981240772411D+00 0.200250000000D+03 0.223289964475D+01-0.781961143249D-08
   -0.399302346831D-09 0.100000000000D+01 0.220500000000D+04 0.000000000000D+00
    0.200000000000D+01 0.000000000000D+00-0.102445483208D-07 0.125000000000D+03
    0.410418000000D+06 0.400000000000D+01 0.000000000000D+00 0.000000000000D+00
30 22  4 14 20  0  0.0-0.523754861206D-03-0.170530256582D-11 0.000000000000D+00
    0.280000000000D+02 0.567500000000D+02 0.486877423256D-08 0.343528576407D+00
    0.306032598019D-05 0.568510196172D-02 0.110249966383D-04 0.515378762054D+04
    0.417600000000D+06 0.670552253723D-07 0.232332647187D+00 0.102445483208D-06
    0.936531261715D+00 0.154625000000D+03-0.271933531356D+01-0.824355766298D-08
    0.443232748137D-09 0.100000000000D+01 0.220500000000D+04 0.000000000000D+00
    0.200000000000D+01 0.000000000000D+00 0.372529029846D-08 0.280000000000D+02
    0.410483000000D+06 0.400000000000D+01 0.000000000000D+00 0.000000000000D+00
31 22  4 14 20  0  0.0-0.173416454345D-03-0.159161572810D-11 0.000000000000D+00
    0.550000000000D+02 0.691562500000D+02 0.445625704957D-08-0.144284938870D+00
    0.384077429771D-05 0.104352422059D-01 0.113714486361D-04 0.515372468948D+04
    0.417600000000D+06 0.143423676491D-06 0.238397198955D+00 0.987201929092D-07
    0.955586950272D+00 0.157062500000D+03 0.385608601575D+00-0.819748431527D-08
    0.528950604344D-09 0.100000000000D+01 0.220500000000D+04 0.000000000000D+00
    0.200000000000D+01 0.000000000000D+00-0.135041773319D-07 0.550000000000D+02
    0.410418000000D+06 0.400000000000D+01 0.000000000000D+00 0.000000000000D+00
32 22  4 14 20  0  0.0-0.105453189462D-03-0.807176547823D-11 0.000000000000D+00
    0.580000000000D+02-0.895312500000D+02 0.431946563737D-08-0.244405451343D+01
   -0.459887087345D-05 0.587820576038D-02 0.100359320641D-04 0.515359276581D+04
    0.417600000000D+06 0.130385160446D-07-0.839911769239D+00-0.484287738800D-07
    0.958058455277D+00 0.183531250000D+03-0.229974681449D+01-0.794354516626D-08
   -0.431089385175D-09 0.100000000000D+01 0.220500000000D+04 0.000000000000D+00
    0.200000000000D+01 0.000000000000D+00 0.465661287308D-09 0.580000000000D+02
    0.410418000000D+06 0.400000000000D+01 0.000000000000D+00 0.000000000000D+00
10 22  4 14 21 59 44.0-0.379429198801D-03-0.127329258248D-10 0.000000000000D+00
    0.340000000000D+02 0.122187500000D+02 0.479234247744D-08-0.826894548620D-02
    0.627711415291D-06 0.755839375779D-02 0.295601785183D-05 0.515367365074D+04
    0.424784000000D+06 0.353902578354D-07-0.188261848572D+01 0.484287738800D-07
    0.972733167932D+00 0.325687500000D+03-0.249334286117D+01-0.852321216885D-08
   -0.310727228751D-10 0.100000000000D+01 0.220500000000D+04 0.000000000000D+00
    0.200000000000D+01 0.000000000000D+00 0.232830643654D-08 0.340000000000D+02
    0.417618000000D+06 0.400000000000D+01 0.000000000000D+00 0.000000000000D+00
27 22  4 14 21 59 44.0 0.183075666428D-03 0.909494701773D-11 0.000000000000D+00
    0.240000000000D+02-0.806562500000D+02 0.435196699118D-08-0.203684592203D+01
   -0.441074371338D-05 0.105138524668D-01 0.924058258533D-05 0.515365367889D+04
    0.424784000000D+06 0.195577740669D-06 0.230842715302D+01-0.596046447754D-07
    0.972678084678D+00 0.204343750000D+03 0.667555351777D+00-0.793247327649D-08
   -0.327513642258D-09 0.100000000000D+01 0.220500000000D+04 0.000000000000D+00
    0.200000000000D+01 0.000000000000D+00 0.139698386192D-08 0.240000000000D+02
    0.417618000000D+06 0.400000000000D+01 0.000000000000D+00 0.000000000000D+00
 1 22  4 14 22  0  0.0 0.384974759072D-03-0.875388650456D-11 0.000000000000D+00
    0.590000000000D+02 0.639062500000D+02 0.384373153542D-08 0.203880317915D+01
    0.313483178616D-05 0.117198515218D-01 0.125020742416D-04 0.515367119598D+04
    0.424800000000D+06-0.216066837311D-06-0.291406541141D+01-0.171363353729D-06
    0.987743920185D+00 0.152406250000D+03 0.891413848496D+00-0.762353183641D-08
    0.403588239642D-09 0.100000000000D+01 0.220500000000D+04 0.000000000000D+00
    0.200000000000D+01 0.000000000000D+00 0.512227416039D-08 0.590000000000D+02
    0.419148000000D+06 0.400000000000D+01 0.000000000000D+00 0.000000000000D+00
 2 22  4 14 22  0  0.0-0.653103459626D-03-0.227373675443D-12 0.000000000000D+00
    0.320000000000D+02 0.269062500000D+02 0.422339020687D-08 0.218126787781D+01
    0.147148966789D-05 0.205027282937D-01 0.116247683763D-04 0.515364345169D+04
    0.424800000000D+06 0.270083546638D-06-0.300449243310D+01-0.145286321640D-06
    0.965963678367D+00 0.148656250000D+03-0.142444525313D+01-0.751638451616D-08
    0.101075638777D-09 0.100000000000D+01 0.220500000000D+04 0.000000000000D+00
    0.200000000000D+01 0.000000000000D+00-0.176951289177D-07 0.320000000000D+02
    0.417697000000D+06 0.400000000000D+01 0.000000000000D+00 0.000000000000D+00
